OBJECT_NAME,OBJECT_ID,EPOCH,MEAN_MOTION,ECCENTRICITY,INCLINATION,RA_OF_ASC_NODE,ARG_OF_PERICENTER,MEAN_ANOMALY,EPHEMERIS_TYPE,CLASSIFICATION_TYPE,NORAD_CAT_ID,ELEMENT_SET_NO,REV_AT_EPOCH,BSTAR,MEAN_MOTION_DOT,MEAN_MOTION_DDOT
ONEWEB-0415,2022-012C,2026-07-13T12:08:37.388256,13.10377464,.00021313,87.8824,31.0216,87.5987,272.5385,0,U,51624,999,21273,-.13269953E-2,-.451E-5,0
ONEWEB-0416,2022-012D,2026-07-13T12:25:45.219072,13.10377597,.0002194,87.8815,31.0355,84.0088,276.1289,0,U,51625,999,21277,.20864E-3,.86E-6,0
ONEWEB-0422,2022-012E,2026-07-13T21:08:37.491072,13.17650769,.0001833,87.9151,0.5495,112.9847,247.1478,0,U,51626,999,21732,-.14552E-3,-.44E-6,0
ONEWEB-0423,2022-012F,2026-07-13T11:52:10.308000,13.17648283,.00017938,87.9142,0.6299,90.3896,269.7441,0,U,51627,999,21716,-.49260526E-4,-.6E-7,0
ONEWEB-0425,2022-012G,2026-07-13T14:30:23.306688,13.10376544,.0001823,87.8817,31.0018,74.7463,285.3865,0,U,51628,999,21278,.16271E-2,.581E-5,0
ONEWEB-0428,2022-012H,2026-07-13T12:11:04.294176,13.10377426,.00018514,87.8816,31.0288,88.1230,272.0110,0,U,51629,999,21273,-.12410311E-2,-.421E-5,0
ONEWEB-0431,2022-012J,2026-07-13T13:16:50.102688,13.10369466,.0002318,87.8815,31.0123,98.0379,262.1011,0,U,51630,999,21279,.33306E-3,.129E-5,0
ONEWEB-0434,2022-012K,2026-07-13T12:45:31.353696,13.10375109,.0001603,87.8821,31.0421,66.6763,293.4533,0,U,51631,999,21277,.17516E-2,.624E-5,0
ONEWEB-0435,2022-012L,2026-07-13T12:55:05.193984,13.10375642,.0001859,87.8813,31.0252,99.9649,260.1688,0,U,51632,999,21276,.17912E-2,.638E-5,0
ONEWEB-0436,2022-012M,2026-07-13T20:46:45.316992,13.17647317,.0001922,87.9151,0.5396,99.0442,261.0907,0,U,51633,999,21719,-.68885E-4,-.14E-6,0
ONEWEB-0438,2022-012N,2026-07-13T14:23:01.370688,13.10378237,.0001855,87.8814,31.0170,78.8814,281.2522,0,U,51634,999,21280,.11286E-2,.407E-5,0
ONEWEB-0439,2022-012P,2026-07-13T14:27:55.725120,13.10376216,.0001703,87.8816,31.0027,83.9578,276.1743,0,U,51635,999,21278,.12568E-2,.451E-5,0
ONEWEB-0442,2022-012Q,2026-07-13T20:35:50.519040,13.17650819,.0001787,87.9143,0.5715,73.0423,287.0905,0,U,51636,999,21718,-.84381E-4,-.2E-6,0
ONEWEB-0443,2022-012R,2026-07-13T11:57:01.289376,13.17648248,.00014907,87.9141,0.6443,94.0892,266.0410,0,U,51637,999,21718,-.41697987E-3,-.149E-5,0
ONEWEB-0444,2022-012S,2026-07-13T12:23:17.420640,13.10378389,.00016,87.8820,31.0193,88.4665,271.6646,0,U,51638,999,21278,-.19623E-3,-.56E-6,0
ONEWEB-0445,2022-012T,2026-07-13T14:42:34.979040,13.10376217,.000192,87.8824,30.9899,85.7714,274.3632,0,U,51639,999,21280,.17592E-2,.627E-5,0
ONEWEB-0446,2022-012U,2026-07-13T12:20:49.820928,13.10386160,.00022915,87.8814,31.0362,88.9531,271.1859,0,U,51640,999,21277,-.6370867E-2,-.2211E-4,0
ONEWEB-0448,2022-012V,2026-07-13T14:18:08.123904,13.10378705,.000178,87.8816,31.0165,86.6193,273.5138,0,U,51641,999,21275,.44203E-3,.167E-5,0
ONEWEB-0449,2022-012W,2026-07-13T14:25:28.019136,13.10375932,.0001918,87.8821,31.0024,68.1266,292.0065,0,U,51642,999,21276,.12821E-2,.46E-5,0
ONEWEB-0451,2022-012X,2026-07-13T20:41:53.780064,13.17651049,.0001727,87.9157,0.5387,86.0525,274.0804,0,U,51643,999,21717,.9236E-5,.16E-6,0
ONEWEB-0452,2022-012Y,2026-07-13T20:39:27.978336,13.17647167,.000157,87.9142,0.5729,89.0484,271.0828,0,U,51644,999,21718,-.13006E-3,-.38E-6,0
ONEWEB-0456,2022-012AA,2026-07-13T12:47:43.059264,13.10372852,.0001761,87.8827,31.0047,91.4542,268.6787,0,U,51646,999,21279,.19813E-2,.704E-5,0
ONEWEB-0457,2022-012AB,2026-07-13T12:15:45.308448,13.10378921,.00021062,87.8817,31.0251,78.1122,282.0242,0,U,51647,999,21279,-.7643885E-3,-.254E-5,0
ONEWEB-0458,2022-012AC,2026-07-13T14:36:28.415808,13.10373723,.0001616,87.8818,30.9937,85.6094,274.5218,0,U,51648,999,21276,.17974E-2,.64E-5,0
ONEWEB-0461,2022-012AD,2026-07-13T21:11:03.816384,13.17649801,.0001964,87.9152,0.5483,89.9752,270.1605,0,U,51649,999,21740,-.11241E-3,-.31E-6,0
ONEWEB-0463,2022-012AE,2026-07-13T11:37:35.590080,13.17650485,.00020988,87.9159,0.6500,90.2757,269.8615,0,U,51650,999,21713,-.35645563E-4,-.1E-7,0
ONEWEB-0464,2022-012AF,2026-07-13T14:32:48.812064,13.10373894,.0001606,87.8816,31.0157,94.0731,266.0580,0,U,51651,999,21278,.14016E-2,.502E-5,0
ONEWEB-0468,2022-012AG,2026-07-13T20:09:59.020416,13.10373118,.0001684,87.8811,30.9619,93.4555,266.6765,0,U,51652,999,21279,.19419E-2,.691E-5,0
ONEWEB-0473,2022-012AH,2026-07-13T14:20:35.822112,13.10377156,.0001854,87.8815,31.0125,89.5718,270.5622,0,U,51653,999,21276,.76436E-3,.28E-5,0
ONEWEB-0474,2022-012AJ,2026-07-13T12:18:24.045984,13.10377039,.00015607,87.8821,31.0159,92.8068,267.3238,0,U,51654,999,21274,-.58228256E-3,-.191E-5,0
